Callisto;Mercury_z_effect_end_km_s2;6.079547345021105e-15;6.08836346390657e-15;8.816118885464893e-18;6.057507047807442e-15;6.1104037611202316e-15;0
Ceres;tof_days_d;117.6628682299104;161.46394236601824;43.80107413610784;8.160182889640794;270.96662770628785;0
Ceres;delta_v_km_s;22.690933227098377;27.16965041589712;4.478717188798743;11.494140255101518;38.36644338789398;0
Ceres;r1_x_geocentric_km;-5608.988489049392;5835.054723318028;11444.04321236742;-34219.09651996794;34445.162754236575;0
Ceres;r1_y_geocentric_km;-3860.532445648776;2408.779729467458;6269.312175116234;-19533.81288343936;18082.06016725804;0
Ceres;r1_z_geocentric_km;-3114.974314565128;3257.2103856660133;6372.1847002311415;-19045.43606514298;19187.672136243866;0
Ceres;orbit_altitude_km;775.7113821693466;1737.5924888107947;961.8811066414481;-1628.9913844342736;4142.295255414415;0
Ceres;semi_major_axis_km;7153.847982169346;8115.729088810795;961.8811066414482;4749.145215565726;10520.431855414416;0
Ceres;eccentricity;0.0340272810583977;0.0760874895599296;0.042060208501531894;-0.07112324019543204;0.18123801081375934;0
Ceres;arg_periapsis_deg;82.97205301072013;248.2543247057176;165.28227169499746;-330.23362622677354;661.4600039432113;0
Ceres;raan_deg;79.01844112614853;257.4396789927153;178.42123786656677;-367.03465354026844;703.4927736591322;0
Ceres;inclination_deg;39.79023609481124;126.16930809743488;86.37907200262364;-176.15744391174786;342.116988103994;0
Ceres;mean_anomaly_deg;74.92092783030483;261.6385196286411;186.7175917983363;-391.8730516655359;728.4324991244819;0
Ceres;eccentric_anomaly_deg;75.3146688481309;256.5616119187909;181.24694307066;-377.8026888285191;709.6789695954409;0
Ceres;true_anomaly_deg;75.7087681676715;251.53076332354055;175.82199515586905;-363.8462197220011;691.0857512132131;0
Ceres;r1_x_km;90257657.68437847;136971876.44690654;46714218.76252806;-26527889.22194168;253757423.3532267;0
Ceres;r1_y_km;-88020339.43901294;-35950626.9032695;52069712.535743445;-218194620.77837157;94223654.43608911;0
Ceres;r1_z_km;-38134296.76776889;-15565288.426676698;22569008.34109219;-94556817.62049937;40857232.426053785;0
Ceres;v1_x_km_s;7.108268223858974;18.23026036874592;11.121992144886946;-20.69671213835839;46.03524073096328;0
Ceres;v1_y_km_s;16.26032142042862;24.78841102980792;8.5280896093793;-5.05990260301963;46.10863505325617;0
Ceres;v1_z_km_s;7.049283059026738;10.74572955166323;3.6964464926364915;-2.1918331725644897;19.98684578325446;0
Ceres;v1_magnitude_km_s;29.39988834748703;29.53901743055613;0.13912908306910055;29.052065639814277;29.88684013822888;0
Ceres;r2_x_km;-59406055.97396192;-40639443.35063987;18766612.623322047;-106322587.53226703;6277088.207665242;0
Ceres;r2_y_km;-36060282.193706185;-17920555.103507243;18139727.09019894;-81409599.91920353;27428762.621990107;0
Ceres;r2_z_km;-800549.0725775026;4028279.931653612;4828829.004231114;-12872621.583155287;16100352.442231396;0
Ceres;v2_x_km_s;3.4778389992620777;16.44919975880626;12.971360759544181;-28.950562899598374;48.87760165766671;0
Ceres;v2_y_km_s;-44.687751515949785;-26.42073267539469;18.267018840555096;-90.35529861733752;19.24681442599305;0
Ceres;v2_z_km_s;-4.676035858605285;-3.970069466095644;0.7059663925096413;-6.440951839879388;-2.2051534848215404;0
Ceres;v2_magnitude_km_s;42.37226474313892;44.99835498350674;2.626090240367816;35.80703914221938;51.563580584426276;0
Ceres;r1_with_gravity_corrected_x_km;90257657.68438192;136971876.44691184;46714218.762529925;-26527889.221942887;253757423.35323665;0
Ceres;r1_with_gravity_corrected_y_km;-88020339.43901627;-35950626.90327086;52069712.535745405;-218194620.7783798;94223654.43609264;0
Ceres;r1_with_gravity_corrected_z_km;-38134296.76777034;-15565288.426677303;22569008.34109304;-94556817.62050295;40857232.4260553;0
Ceres;r1_total_corrected_x_km;90257657.68438192;136971876.44691184;46714218.762529925;-26527889.221942887;253757423.35323665;0
Ceres;r1_total_corrected_y_km;-88020339.43901627;-35950626.90327086;52069712.535745405;-218194620.7783798;94223654.43609264;0
Ceres;r1_total_corrected_z_km;-38134296.76777034;-15565288.426677303;22569008.34109304;-94556817.62050295;40857232.4260553;0
Ceres;v1_transfer_x_km_s;7.833075927501333;16.951440931502283;9.11836500400095;-14.96283658250104;39.74735344150466;0
Ceres;v1_transfer_y_km_s;10.449204759342248;20.16220619471293;9.713001435370682;-13.833298829084459;44.444709783139636;0
Ceres;v1_transfer_z_km_s;-0.3088120377533656;2.115107532888546;2.423919570641911;-6.368610964358143;8.174906459493323;0
Ceres;r2_total_corrected_x_km;-59406055.97399556;-40639443.35065661;18766612.623338945;-106322587.53234291;6277088.207690746;0
Ceres;r2_total_corrected_y_km;-36060282.19372325;-17920555.103517;18139727.090206247;-81409599.91923887;27428762.62199862;0
Ceres;r2_total_corrected_z_km;-800549.0725778429;4028279.9316559;4828829.004233743;-12872621.583162202;16100352.442240259;0
Ceres;v2_transfer_x_km_s;1.4250990610282663;13.605006500159552;12.179907439131286;-29.024669536799948;44.054775097987765;0
Ceres;v2_transfer_y_km_s;-53.35714724351611;-37.01112628997888;16.346020953537227;-94.22219962735917;3.8539260938641817;0
Ceres;v2_transfer_z_km_s;-12.127314324180222;-7.102009535132864;5.025304789047358;-24.690576296798618;5.461252437485531;0
Ceres;delta_r1_with_gravity_x_km;3.4421682357788086e-06;5.27501106262207e-06;1.8328428268432617e-06;-1.1399388313293457e-06;9.857118129730225e-06;0
Ceres;delta_r1_with_gravity_y_km;-3.3229589462280278e-06;-1.3634562492370603e-06;1.9595026969909676e-06;-8.221715688705446e-06;3.535300493240358e-06;0
Ceres;delta_r1_with_gravity_z_km;-1.4528632164001465e-06;-6.05359673500061e-07;8.475035429000854e-07;-3.57162207365036e-06;1.5133991837501526e-06;0
Ceres;delta_r1_x_km;3.4421682357788086e-06;5.27501106262207e-06;1.8328428268432617e-06;-1.1399388313293457e-06;9.857118129730225e-06;0
Ceres;delta_r1_y_km;-3.3229589462280278e-06;-1.3634562492370603e-06;1.9595026969909676e-06;-8.221715688705446e-06;3.535300493240358e-06;0
Ceres;delta_r1_z_km;-1.4528632164001465e-06;-6.05359673500061e-07;8.475035429000854e-07;-3.57162207365036e-06;1.5133991837501526e-06;0
Ceres;delta_r2_x_km;-3.3639371395111084e-05;-1.7996647475678245e-05;1.564272391943284e-05;-7.274618119369319e-05;2.1110162322903856e-05;0
Ceres;delta_r2_y_km;-1.706928014755249e-05;-9.756535291671751e-06;7.312744855880739e-06;-3.5351142287254333e-05;8.525326848030095e-06;0
Ceres;delta_r2_z_km;-3.402819857001305e-07;2.287793904542923e-06;2.6280758902430534e-06;-6.910471711307764e-06;8.857983630150557e-06;0
Ceres;ax_J2_km_s2;-3.97034774853934e-23;-1.8064808859700634e-23;2.1638668625692766e-23;-9.380014904962532e-23;3.603186270453128e-23;2
Ceres;ay_J2_km_s2;1.3371993238921635e-23;1.9455998400348494e-23;6.084005161426859e-24;-1.838019664645514e-24;3.4666011303915645e-23;12
Ceres;az_J2_km_s2;1.5710620196693133e-23;3.3671068005293135e-23;1.7960447808600002e-23;-2.9190499324806876e-23;7.857218752679314e-23;0
Ceres;a_J2_magnitude_km_s2;4.71532139207428e-23;5.0961138797795785e-23;3.807924877052987e-24;3.7633401728110333e-23;6.048095099042825e-23;0
Ceres;ax_J3_km_s2;3.326008300324482e-32;2.00732295647595e-31;1.674722126443502e-31;-3.854204486076307e-31;6.1941282725847045e-31;0
Ceres;ay_J3_km_s2;-1.5053599696514886e-31;-1.010159003533919e-32;1.4043440692980967e-31;-5.01622014289673e-31;3.40984427289185e-31;0
Ceres;az_J3_km_s2;-7.422783227559483e-39;-3.4511252665502975e-39;3.9716579610091855e-39;-1.7351928130082445e-38;6.478019635972666e-39;0
Ceres;a_J3_magnitude_km_s2;3.476025377676088e-32;2.509074349202208e-31;2.1614718114345995e-31;-5.05607699081889e-31;7.912753877788708e-31;0
Ceres;ax_J4_km_s2;-1.36467812885216e-19;-5.037856488371117e-21;1.314299563968449e-19;-4.650427038773282e-19;3.235370345037411e-19;0
Ceres;ay_J4_km_s2;1.2474261679397938e-21;1.0234186880617938e-19;1.0109444263823959e-19;-2.514886804276592e-19;3.550779754017784e-19;0
Ceres;az_J4_km_s2;5.401476394794531e-22;4.433901393949448e-20;4.379886630001503e-20;-1.0895701811055812e-19;1.5383617968953205e-19;0
Ceres;a_J4_magnitude_km_s2;1.1629228780477003e-20;1.7624775238720706e-19;1.6461852360673006e-19;-3.999170802363482e-19;5.877940614040322e-19;0
Ceres;Sun_effect_start_km_s2;5.775651831019671e-06;5.830171396235827e-06;5.451956521615582e-08;5.639352917979282e-06;5.966470309276217e-06;6
Ceres;Mercury_effect_start_km_s2;8.310027479157864e-12;3.4084420753563075e-11;2.577439327440521e-11;-5.612595570685516e-11;9.85204039395761e-11;0
Ceres;Venus_effect_start_km_s2;2.6243760889585257e-10;1.1051542305540655e-09;8.42716621658213e-10;-1.8443539452496798e-09;3.2119457846995978e-09;0
Ceres;Earth_effect_start_km_s2;3.725919180366365e-13;5.511041374095695e-13;1.7851221937293302e-13;-7.368863039569603e-14;9.973846858419021e-13;0
Ceres;Mars_effect_start_km_s2;3.22927445097941e-12;1.35822275620598e-11;1.035295311108039e-11;-2.2653108326721567e-11;3.9464610339760776e-11;0
Ceres;Moon_effect_start_km_s2;1.6121649906690019e-10;1.7269486273451416e-10;1.147836366761397e-11;1.3252058989786526e-10;2.0139077190354908e-10;12
Ceres;Jupiter_effect_start_km_s2;2.124154938280661e-11;2.2801076877814886e-11;1.559527495008276e-12;1.734273064528592e-11;2.6699895615335576e-11;0
Ceres;Saturn_effect_start_km_s2;6.573377833994681e-13;6.896345175881641e-13;3.229673418869595e-14;5.765959479277283e-13;7.70376353059904e-13;0
Ceres;Uranus_effect_start_km_s2;3.561806717455496e-13;3.640054874024658e-13;7.82481565691619e-15;3.3661863260325915e-13;3.835675265447563e-13;0
Ceres;Neptune_effect_start_km_s2;3.6247408687847457e-17;3.689404676605287e-17;6.466380782054153e-19;3.4630813492333915e-17;3.851064196156641e-17;0
Ceres;Pluto_effect_start_km_s2;3.4390936134571304e-06;5.28962628271111e-06;1.8505326692539796e-06;-1.1872380596778181e-06;9.91595795584606e-06;0
Ceres;Sun_x_effect_start_km_s2;-2.220355298443571e-11;4.663133053639463e-12;2.6866686038075172e-11;-8.937026807962364e-11;7.18298481488274e-11;0
